NORAD_CAT_ID,OBJECT_NAME,OBJECT_TYPE,EPOCH,MEAN_MOTION,ECCENTRICITY,INCLINATION,RA_OF_ASC_NODE,ARG_OF_PERICENTER,MEAN_ANOMALY,BSTAR,MEAN_MOTION_DOT,MEAN_MOTION_DDOT,TLE_LINE0,TLE_LINE1,TLE_LINE2,SEMIMAJOR_AXIS,PERIOD,APOGEE,PERIGEE,DECAYED
56471.0,STARLINK-5521,PAYLOAD,2023-08-24 22:00:00,15.5122702,0.0003447,69.9999,307.2918,271.958,244.5,-0.00038566,-0.00022756,0.0,0 STARLINK-5521,1 56471U 23064Z   23236.91667824 -.00022756  00000-0 -38566-3 0  9992,2 56471  69.9999 307.2918 0003447 271.9580 244.5000 15.51227020 17037,6791.279,92.83,415.485,410.803,0.0
56471.0,STARLINK-5521,PAYLOAD,2023-08-25 14:00:01,15.51208813,0.0003429,70.0004,305.4691,274.1078,4.1851,0.00038413,0.00022451,0.0,0 STARLINK-5521,1 56471U 23064Z   23237.58334491  .00022451  00000-0  38413-3 0  9998,2 56471  70.0004 305.4691 0003429 274.1078   4.1851 15.51208813 17136,6791.333,92.831,415.526,410.869,0.0
56471.0,STARLINK-5521,PAYLOAD,2023-08-25 22:00:01,15.5121889,0.0003385,70.0001,304.5575,269.6103,69.6532,-5.9572e-05,-3.662e-05,0.0,0 STARLINK-5521,1 56471U 23064Z   23237.91668981 -.00003662  00000-0 -59572-4 0  9994,2 56471  70.0001 304.5575 0003385 269.6103  69.6532 15.51218890  6016,6791.303,92.83,415.467,410.869,0.0
56471.0,STARLINK-5521,PAYLOAD,2023-08-26 07:22:33,15.51220428,0.0003351,69.9977,303.4907,270.0007,90.0795,1.3356e-05,6.2e-06,0.0,0 STARLINK-5521,1 56471U 23064Z   23238.30732758  .00000620  00000-0  13356-4 0  9991,2 56471  69.9977 303.4907 0003351 270.0007  90.0795 15.51220428 17240,6791.299,92.83,415.439,410.888,0.0
56471.0,STARLINK-5521,PAYLOAD,2023-08-26 12:01:07,15.51218371,0.0003234,69.9975,302.9602,267.3195,92.7621,3.315e-05,1.782e-05,0.0,0 STARLINK-5521,1 56471U 23064Z   23238.50077962  .00001782  00000-0  33150-4 0  9996,2 56471  69.9975 302.9602 0003234 267.3195  92.7621 15.51218371 16926,6791.305,92.83,415.366,410.973,0.0
56471.0,STARLINK-5521,PAYLOAD,2023-08-26 16:39:41,15.51225539,0.0003274,69.9974,302.4321,269.1174,90.9637,1.5863e-05,7.67e-06,0.0,0 STARLINK-5521,1 56471U 23064Z   23238.69423068  .00000767  00000-0  15863-4 0  9991,2 56471  69.9974 302.4321 0003274 269.1174  90.9637 15.51225539 16953,6791.284,92.83,415.372,410.925,0.0
56471.0,STARLINK-5521,PAYLOAD,2023-08-27 05:02:33,15.51225269,0.0003179,69.9969,301.0211,267.3179,92.7643,6.2401e-06,2.02e-06,0.0,0 STARLINK-5521,1 56471U 23064Z   23239.21010707  .00000202  00000-0  62401-5 0  9997,2 56471  69.9969 301.0211 0003179 267.3179  92.7643 15.51225269 17036,6791.285,92.83,415.309,410.991,0.0
56471.0,STARLINK-5521,PAYLOAD,2023-08-27 15:52:33,15.51227296,0.000332,69.9969,299.7874,269.2927,90.7879,9.7792e-06,4.1e-06,0.0,0 STARLINK-5521,1 56471U 23064Z   23239.66149643  .00000410  00000-0  97792-5 0  9990,2 56471  69.9969 299.7874 0003320 269.2927  90.7879 15.51227296 17451,6791.279,92.83,415.398,410.889,0.0
56471.0,STARLINK-5521,PAYLOAD,2023-08-28 10:27:53,15.50509566,0.0002839,69.9969,297.6748,261.1454,98.9411,-0.0015316,-0.00086914,0.0,0 STARLINK-5521,1 56471U 23064Z   23240.43603656 -.00086914  00000-0 -15316-2 0  9990,2 56471  69.9969 297.6748 0002839 261.1454  98.9411 15.50509566 17575,6793.374,92.873,417.168,413.311,0.0
56471.0,STARLINK-5521,PAYLOAD,2023-08-28 16:40:07,15.49993178,0.0002662,69.9968,296.9716,249.8036,110.2863,-0.002626,-0.00145139,0.0,0 STARLINK-5521,1 56471U 23064Z   23240.69453304 -.00145139  00000-0 -26260-2 0  9996,2 56471  69.9968 296.9716 0002662 249.8036 110.2863 15.49993178 17612,6794.883,92.904,418.557,414.939,0.0
56471.0,STARLINK-5521,PAYLOAD,2023-08-29 06:00:00,15.48246004,0.0003343,70.0,295.4538,268.0428,311.9926,-0.019416,-0.00942725,0.0,0 STARLINK-5521,1 56471U 23064Z   23241.25001157 -.00942725  00000-0 -19416-1 0  9994,2 56471  70.0000 295.4538 0003343 268.0428 311.9926 15.48246004 17701,6799.994,93.008,424.132,419.586,0.0
56471.0,STARLINK-5521,PAYLOAD,2023-08-29 22:00:00,15.46906924,0.0003475,69.9994,293.6411,269.4343,63.6762,-0.019452,-0.00904606,0.0,0 STARLINK-5521,1 56471U 23064Z   23241.91667824 -.00904606  00000-0 -19452-1 0  9992,2 56471  69.9994 293.6411 0003475 269.4343  63.6762 15.46906924  6021,6803.918,93.089,428.147,423.418,0.0
56471.0,STARLINK-5521,PAYLOAD,2023-08-30 14:00:01,15.45600915,0.0003507,69.9989,291.8321,277.5597,165.4787,-0.019943,-0.00887918,0.0,0 STARLINK-5521,1 56471U 23064Z   23242.58334491 -.00887918  00000-0 -19943-1 0  9998,2 56471  69.9989 291.8321 0003507 277.5597 165.4787 15.45600915 17910,6807.75,93.168,432.002,427.227,0.0
56471.0,STARLINK-5521,PAYLOAD,2023-08-30 22:00:00,15.44945691,0.0003392,69.9989,290.9289,271.947,224.885,-0.020606,-0.0089632,0.0,0 STARLINK-5521,1 56471U 23064Z   23242.91667824 -.00896320  00000-0 -20606-1 0  9999,2 56471  69.9989 290.9289 0003392 271.9470 224.8850 15.44945691  5957,6809.675,93.207,433.849,429.23,0.0
56471.0,STARLINK-5521,PAYLOAD,2023-08-31 04:00:01,15.44482866,0.0003439,69.999,290.2521,271.0777,175.6325,-0.021465,-0.00917263,0.0,0 STARLINK-5521,1 56471U 23064Z   23243.16668981 -.00917263  00000-0 -21465-1 0  9996,2 56471  69.9990 290.2521 0003439 271.0777 175.6325 15.44482866 18004,6811.035,93.235,435.242,430.558,0.0
56471.0,STARLINK-5521,PAYLOAD,2023-08-31 20:00:01,15.43178426,0.0003298,69.9983,288.4494,272.5556,278.1616,-0.023145,-0.0094381,0.0,0 STARLINK-5521,1 56471U 23064Z   23243.83334491 -.00943810  00000-0 -23145-1 0  9990,2 56471  69.9983 288.4494 0003298 272.5556 278.1616 15.43178426 18104,6814.873,93.314,438.985,434.49,0.0
56471.0,STARLINK-5521,PAYLOAD,2023-08-31 22:00:01,15.42982645,0.0003426,69.9984,288.2243,269.7058,23.8729,-0.021786,-0.00887249,0.0,0 STARLINK-5521,1 56471U 23064Z   23243.91668981 -.00887249  00000-0 -21786-1 0  9995,2 56471  69.9984 288.2243 0003426 269.7058  23.8729 15.42982645  5867,6815.449,93.326,439.649,434.979,0.0
56471.0,STARLINK-5521,PAYLOAD,2023-09-01 14:00:01,15.41686799,0.0003506,69.9983,286.4257,276.3243,117.7288,-0.02278,-0.00888147,0.0,0 STARLINK-5521,1 56471U 23064Z   23244.58334491 -.00888147  00000-0 -22780-1 0  9998,2 56471  69.9983 286.4257 0003506 276.3243 117.7288 15.41686799  5975,6819.268,93.404,443.524,438.742,0.0
56471.0,STARLINK-5521,PAYLOAD,2023-09-01 22:00:00,15.41016701,0.0003394,69.9982,285.5278,270.8744,172.2824,-0.022818,-0.00871297,0.0,0 STARLINK-5521,1 56471U 23064Z   23244.91667824 -.00871297  00000-0 -22818-1 0  9994,2 56471  69.9982 285.5278 0003394 270.8744 172.2824 15.41016701  6026,6821.244,93.445,445.425,440.794,0.0
56471.0,STARLINK-5521,PAYLOAD,2023-09-02 04:00:00,15.40576786,0.0003468,69.9984,284.8549,269.4825,119.9604,-0.024819,-0.00928919,0.0,0 STARLINK-5521,1 56471U 23064Z   23245.16667824 -.00928919  00000-0 -24819-1 0  9999,2 56471  69.9984 284.8549 0003468 269.4825 119.9604 15.40576786 18308,6822.543,93.471,446.774,442.042,0.0
56471.0,STARLINK-5521,PAYLOAD,2023-09-02 14:00:01,15.39736165,0.0003268,69.9981,283.7345,275.4001,263.5958,-0.024539,-0.00895949,0.0,0 STARLINK-5521,1 56471U 23064Z   23245.58334491 -.00895949  00000-0 -24539-1 0  9991,2 56471  69.9981 283.7345 0003268 275.4001 263.5958 15.39736165  5961,6825.026,93.523,449.121,444.66,0.0
56471.0,STARLINK-5521,PAYLOAD,2023-09-02 22:00:00,15.39058018,0.0003288,69.9981,282.8394,269.067,316.6889,-0.024184,-0.00865931,0.0,0 STARLINK-5521,1 56471U 23064Z   23245.91667824 -.00865931  00000-0 -24184-1 0  9991,2 56471  69.9981 282.8394 0003288 269.0670 316.6889 15.39058018  6023,6827.031,93.564,451.14,446.651,0.0
56471.0,STARLINK-5521,PAYLOAD,2023-09-03 04:00:00,15.38625097,0.0003269,69.9983,282.1687,269.3012,260.9792,-0.026751,-0.00937923,0.0,0 STARLINK-5521,1 56471U 23064Z   23246.16667824 -.00937923  00000-0 -26751-1 0  9992,2 56471  69.9983 282.1687 0003269 269.3012 260.9792 15.38625097 18466,6828.311,93.59,452.408,447.944,0.0
56471.0,STARLINK-5521,PAYLOAD,2023-09-03 14:00:01,15.37787479,0.0003496,69.9978,281.0516,274.4965,42.4013,-0.026573,-0.0090906,0.0,0 STARLINK-5521,1 56471U 23064Z   23246.58334491 -.00909060  00000-0 -26573-1 0  9992,2 56471  69.9978 281.0516 0003496 274.4965  42.4013 15.37787479  5912,6830.79,93.641,455.043,450.267,0.0
56471.0,STARLINK-5521,PAYLOAD,2023-09-04 14:00:01,15.35827434,0.0003514,69.998,278.3765,277.3611,170.402,-0.02817,-0.00904785,0.0,0 STARLINK-5521,1 56471U 23064Z   23247.58334491 -.00904785  00000-0 -28170-1 0  9997,2 56471  69.9980 278.3765 0003514 277.3611 170.4020 15.35827434 18683,6836.601,93.761,460.868,456.064,0.0
56471.0,STARLINK-5521,PAYLOAD,2023-09-05 04:00:00,15.34715765,0.0003501,69.9987,276.8198,270.8511,159.9852,-0.030686,-0.00947221,0.0,0 STARLINK-5521,1 56471U 23064Z   23248.16667824 -.00947221  00000-0 -30686-1 0  9998,2 56471  69.9987 276.8198 0003501 270.8511 159.9852 15.34715765 18773,6839.902,93.828,464.162,459.372,0.0
56471.0,STARLINK-5521,PAYLOAD,2023-09-05 14:00:01,15.3387043,0.0003391,69.9983,275.7094,274.3472,297.2407,-0.030041,-0.00906187,0.0,0 STARLINK-5521,1 56471U 23064Z   23248.58334491 -.00906187  00000-0 -30041-1 0  9996,2 56471  69.9983 275.7094 0003391 274.3472 297.2407 15.33870430  5963,6842.415,93.88,466.6,461.959,0.0
56471.0,STARLINK-5521,PAYLOAD,2023-09-06 04:00:00,15.3275514,0.0003306,69.9989,274.1572,268.2079,282.3479,-0.032465,-0.00942044,0.0,0 STARLINK-5521,1 56471U 23064Z   23249.16667824 -.00942044  00000-0 -32465-1 0  9994,2 56471  69.9989 274.1572 0003306 268.2079 282.3479 15.32755140 18927,6845.733,93.948,469.862,465.335,0.0
56471.0,STARLINK-5521,PAYLOAD,2023-09-06 14:00:01,15.3191797,0.0003522,69.9985,273.0501,273.4619,54.9084,-0.032207,-0.00912867,0.0,0 STARLINK-5521,1 56471U 23064Z   23249.58334491 -.00912867  00000-0 -32207-1 0  9995,2 56471  69.9985 273.0501 0003522 273.4619  54.9084 15.31917970  5977,6848.227,94.0,472.504,467.68,0.0
56471.0,STARLINK-5521,PAYLOAD,2023-09-06 22:00:00,15.3122655,0.0003467,69.9985,272.1656,267.4702,98.2752,-0.030601,-0.00853604,0.0,0 STARLINK-5521,1 56471U 23064Z   23249.91667824 -.00853604  00000-0 -30601-1 0  9990,2 56471  69.9985 272.1656 0003467 267.4702  98.2752 15.31226550  6029,6850.289,94.042,474.529,469.779,0.0
